NORAD_CAT_ID,OBJECT_NAME,OBJECT_TYPE,EPOCH,MEAN_MOTION,ECCENTRICITY,INCLINATION,RA_OF_ASC_NODE,ARG_OF_PERICENTER,MEAN_ANOMALY,BSTAR,MEAN_MOTION_DOT,MEAN_MOTION_DDOT,TLE_LINE0,TLE_LINE1,TLE_LINE2,SEMIMAJOR_AXIS,PERIOD,APOGEE,PERIGEE,DECAYED
55307.0,STARLINK-5288,PAYLOAD,2024-02-02 10:54:09,14.98330791,0.0002836,70.0013,136.5744,256.5769,103.5074,-6.2001e-06,-1.67e-06,0.0,0 STARLINK-5288,1 55307U 23010AQ  24033.45427717 -.00000167  00000-0 -62001-5 0  9995,2 55307  70.0013 136.5744 0002836 256.5769 103.5074 14.98330791 58673,6950.19,96.107,574.027,570.084,0.0
55307.0,STARLINK-5288,PAYLOAD,2024-02-02 14:06:25,14.98330742,0.0002827,70.0013,136.2376,255.021,105.0636,1.5724e-05,9.5e-07,0.0,0 STARLINK-5288,1 55307U 23010AQ  24033.58779656  .00000095  00000-0  15724-4 0  9998,2 55307  70.0013 136.2376 0002827 255.0210 105.0636 14.98330742 59012,6950.191,96.107,574.02,570.091,0.0
55307.0,STARLINK-5288,PAYLOAD,2024-02-02 17:18:41,14.98329779,0.0002662,70.0009,135.8997,251.5804,108.5066,-3.1858e-06,-1.31e-06,0.0,0 STARLINK-5288,1 55307U 23010AQ  24033.72131789 -.00000131  00000-0 -31858-5 0  9993,2 55307  70.0009 135.8997 0002662 251.5804 108.5066 14.98329779 59033,6950.194,96.107,573.909,570.208,0.0
55307.0,STARLINK-5288,PAYLOAD,2024-02-03 12:32:18,14.9833187,0.0002925,70.0005,133.8792,264.9697,95.1129,6.6552e-05,7.01e-06,0.0,0 STARLINK-5288,1 55307U 23010AQ  24034.52243444  .00000701  00000-0  66552-4 0  9993,2 55307  70.0005 133.8792 0002925 264.9697  95.1129 14.98331870 59159,6950.187,96.107,574.085,570.019,0.0
55307.0,STARLINK-5288,PAYLOAD,2024-02-03 15:44:34,14.98333445,0.0003036,70.0003,133.5425,269.623,90.4581,8.0427e-05,8.67e-06,0.0,0 STARLINK-5288,1 55307U 23010AQ  24034.65595315  .00000867  00000-0  80427-4 0  9994,2 55307  70.0003 133.5425 0003036 269.6230  90.4581 14.98333445 58852,6950.182,96.107,574.157,569.937,0.0
55307.0,STARLINK-5288,PAYLOAD,2024-02-04 14:10:27,14.9833423,0.0002999,70.0002,131.1859,266.5386,93.543,8.4279e-05,9.13e-06,0.0,0 STARLINK-5288,1 55307U 23010AQ  24035.59059122  .00000913  00000-0  84279-4 0  9990,2 55307  70.0002 131.1859 0002999 266.5386  93.5430 14.98334230 59313,6950.18,96.107,574.129,569.96,0.0
55307.0,STARLINK-5288,PAYLOAD,2024-02-04 15:46:35,14.983352,0.0002992,70.0002,131.0176,266.28,93.8017,9.3637e-05,1.025e-05,0.0,0 STARLINK-5288,1 55307U 23010AQ  24035.65735018  .00001025  00000-0  93637-4 0  9995,2 55307  70.0002 131.0176 0002992 266.2800  93.8017 14.98335200 59003,6950.177,96.107,574.121,569.962,0.0
55307.0,STARLINK-5288,PAYLOAD,2024-02-05 14:12:28,14.9833681,0.0002831,70.0003,128.6607,269.0372,91.0462,-3.2218e-05,-4.77e-06,0.0,0 STARLINK-5288,1 55307U 23010AQ  24036.59199094 -.00000477  00000-0 -32218-4 0  9997,2 55307  70.0003 128.6607 0002831 269.0372  91.0462 14.98336810 59464,6950.172,96.107,574.004,570.069,0.0
55307.0,STARLINK-5288,PAYLOAD,2024-02-05 15:48:36,14.98334557,0.0003077,70.0004,128.4924,271.644,88.4367,3.2556e-05,2.96e-06,0.0,0 STARLINK-5288,1 55307U 23010AQ  24036.65875065  .00000296  00000-0  32556-4 0  9995,2 55307  70.0004 128.4924 0003077 271.6440  88.4367 14.98334557 59159,6950.179,96.107,574.182,569.905,0.0
55307.0,STARLINK-5288,PAYLOAD,2024-02-06 14:14:28,14.98333711,0.0002747,70.0006,126.1359,270.0335,90.0509,4.0916e-05,3.95e-06,0.0,0 STARLINK-5288,1 55307U 23010AQ  24037.59339007  .00000395  00000-0  40916-4 0  9999,2 55307  70.0006 126.1359 0002747 270.0335  90.0509 14.98333711 59616,6950.181,96.107,573.956,570.137,0.0
55307.0,STARLINK-5288,PAYLOAD,2024-02-06 15:50:37,14.98297916,0.0002575,70.0006,125.9679,273.0726,87.0138,0.00071392,8.428e-05,0.0,0 STARLINK-5288,1 55307U 23010AQ  24037.66015935  .00008428  00000-0  71392-3 0  9994,2 55307  70.0006 125.9679 0002575 273.0726  87.0138 14.98297916 59300,6950.292,96.109,573.947,570.367,0.0
55307.0,STARLINK-5288,PAYLOAD,2024-02-07 12:40:21,14.98332482,0.0002682,70.0007,123.7802,269.7969,90.2882,6.0666e-05,6.31e-06,0.0,0 STARLINK-5288,1 55307U 23010AQ  24038.52802920  .00000631  00000-0  60666-4 0  9999,2 55307  70.0007 123.7802 0002682 269.7969  90.2882 14.98332482 59439,6950.185,96.107,573.914,570.186,0.0
55307.0,STARLINK-5288,PAYLOAD,2024-02-07 14:16:29,14.98331766,0.0002713,70.0006,123.6122,270.0397,90.0452,5.0286e-05,5.07e-06,0.0,0 STARLINK-5288,1 55307U 23010AQ  24038.59479000  .00000507  00000-0  50286-4 0  9994,2 55307  70.0006 123.6122 0002713 270.0397  90.0452 14.98331766 59768,6950.187,96.107,573.938,570.167,0.0
55307.0,STARLINK-5288,PAYLOAD,2024-02-07 15:52:37,14.98332231,0.0002711,70.0006,123.4438,270.0759,90.0089,5.4504e-05,5.57e-06,0.0,0 STARLINK-5288,1 55307U 23010AQ  24038.66154955  .00000557  00000-0  54504-4 0  9993,2 55307  70.0006 123.4438 0002711 270.0759  90.0089 14.98332231 59771,6950.186,96.107,573.935,570.167,0.0
55307.0,STARLINK-5288,PAYLOAD,2024-02-08 11:06:15,14.9832602,0.0002598,70.0008,121.4248,265.6243,94.4619,-2.9431e-05,-4.44e-06,0.0,0 STARLINK-5288,1 55307U 23010AQ  24039.46267691 -.00000444  00000-0 -29431-4 0  9992,2 55307  70.0008 121.4248 0002598 265.6243  94.4619 14.98326020 59575,6950.205,96.107,573.876,570.265,0.0
55307.0,STARLINK-5288,PAYLOAD,2024-02-08 14:18:31,14.98326779,0.000258,70.0008,121.0882,265.5655,94.5209,-2.0115e-05,-3.33e-06,0.0,0 STARLINK-5288,1 55307U 23010AQ  24039.59619638 -.00000333  00000-0 -20115-4 0  9995,2 55307  70.0008 121.0882 0002580 265.5655  94.5209 14.98326779 59917,6950.203,96.107,573.861,570.275,0.0
55307.0,STARLINK-5288,PAYLOAD,2024-02-09 11:08:17,14.98312941,0.0002679,70.0002,118.8983,265.5354,94.5499,-0.00011107,-1.417e-05,0.0,0 STARLINK-5288,1 55307U 23010AQ  24040.46409172 -.00001417  00000-0 -11107-3 0  9997,2 55307  70.0002 118.8983 0002679 265.5354  94.5499 14.98312941 59728,6950.246,96.108,573.973,570.249,0.0
55307.0,STARLINK-5288,PAYLOAD,2024-02-09 14:20:34,14.98309705,0.0002654,70.0004,118.5632,267.1083,92.9772,-0.00017934,-2.231e-05,0.0,0 STARLINK-5288,1 55307U 23010AQ  24040.59761753 -.00002231  00000-0 -17934-3 0  9996,2 55307  70.0004 118.5632 0002654 267.1083  92.9772 14.98309705 60067,6950.256,96.108,573.965,570.276,0.0
55307.0,STARLINK-5288,PAYLOAD,2024-02-10 11:10:17,14.98325501,0.0002663,70.0001,116.3738,260.3457,99.7401,0.00010762,1.191e-05,0.0,0 STARLINK-5288,1 55307U 23010AQ  24041.46548547  .00001191  00000-0  10762-3 0  9991,2 55307  70.0001 116.3738 0002663 260.3457  99.7401 14.98325501 59870,6950.207,96.107,573.923,570.221,0.0
55307.0,STARLINK-5288,PAYLOAD,2024-02-10 14:22:33,14.98335053,0.0002964,69.9994,116.0362,267.5344,92.5476,0.00016188,1.839e-05,0.0,0 STARLINK-5288,1 55307U 23010AQ  24041.59899810  .00001839  00000-0  16188-3 0  9994,2 55307  69.9994 116.0362 0002964 267.5344  92.5476 14.98335053 60212,6950.177,96.107,574.102,569.982,0.0
55307.0,STARLINK-5288,PAYLOAD,2024-02-11 14:24:33,14.98339281,0.0002751,70.0005,113.5135,257.9891,102.096,0.00043908,5.151e-05,0.0,0 STARLINK-5288,1 55307U 23010AQ  24042.60038787  .00005151  00000-0  43908-3 0  9996,2 55307  70.0005 113.5135 0002751 257.9891 102.0960 14.98339281 60360,6950.164,96.106,573.941,570.117,0.0
55307.0,STARLINK-5288,PAYLOAD,2024-02-12 11:14:18,14.98341062,0.0002472,70.0011,111.325,242.2429,117.848,5.9534e-05,6.18e-06,0.0,0 STARLINK-5288,1 55307U 23010AQ  24043.46826885  .00000618  00000-0  59534-4 0  9991,2 55307  70.0011 111.3250 0002472 242.2429 117.8480 14.98341062 60175,6950.159,96.106,573.742,570.306,0.0
55307.0,STARLINK-5288,PAYLOAD,2024-02-12 14:26:34,14.98341628,0.0002446,70.0013,110.9884,240.1905,119.9011,7.0339e-05,7.47e-06,0.0,0 STARLINK-5288,1 55307U 23010AQ  24043.60178702  .00000747  00000-0  70339-4 0  9994,2 55307  70.0013 110.9884 0002446 240.1905 119.9011 14.98341628 60511,6950.157,96.106,573.722,570.322,0.0
55307.0,STARLINK-5288,PAYLOAD,2024-02-13 11:16:19,14.98330079,0.0002266,70.0016,108.7987,254.7581,105.3327,-0.00013757,-1.734e-05,0.0,0 STARLINK-5288,1 55307U 23010AQ  24044.46967500 -.00001734  00000-0 -13757-3 0  9990,2 55307  70.0016 108.7987 0002266 254.7581 105.3327 14.98330079 60320,6950.193,96.107,573.633,570.483,0.0
55307.0,STARLINK-5288,PAYLOAD,2024-02-13 14:28:36,14.98327879,0.0002495,70.0013,108.463,256.5429,103.5452,-0.00016539,-2.066e-05,0.0,0 STARLINK-5288,1 55307U 23010AQ  24044.60319714 -.00002066  00000-0 -16539-3 0  9994,2 55307  70.0013 108.4630 0002495 256.5429 103.5452 14.98327879 60664,6950.199,96.107,573.799,570.33,0.0
55307.0,STARLINK-5288,PAYLOAD,2024-02-13 20:53:07,14.98338225,0.0002911,69.9997,107.7881,272.3406,87.742,-0.00019684,-2.441e-05,0.0,0 STARLINK-5288,1 55307U 23010AQ  24044.87022987 -.00002441  00000-0 -19684-3 0  9997,2 55307  69.9997 107.7881 0002911 272.3406  87.7420 14.98338225 60706,6950.167,96.106,574.056,570.009,0.0
55307.0,STARLINK-5288,PAYLOAD,2024-02-14 11:18:20,14.98334515,0.0002775,69.9996,106.2736,264.0616,96.0227,1.8628e-05,1.29e-06,0.0,0 STARLINK-5288,1 55307U 23010AQ  24045.47106655  .00000129  00000-0  18628-4 0  9996,2 55307  69.9996 106.2736 0002775 264.0616  96.0227 14.98334515 60477,6950.179,96.107,573.973,570.115,0.0
55307.0,STARLINK-5288,PAYLOAD,2024-02-14 12:54:28,14.98335713,0.0002794,69.9996,106.1055,266.22,93.8639,4.2637e-05,4.16e-06,0.0,0 STARLINK-5288,1 55307U 23010AQ  24045.53782526  .00000416  00000-0  42637-4 0  9996,2 55307  69.9996 106.1055 0002794 266.2200  93.8639 14.98335713 60804,6950.175,96.107,573.982,570.098,0.0
55307.0,STARLINK-5288,PAYLOAD,2024-02-14 20:55:08,14.98336273,0.0002816,69.9995,105.2636,267.2217,92.862,-9.699e-06,-2.09e-06,0.0,0 STARLINK-5288,1 55307U 23010AQ  24045.87162529 -.00000209  00000-0 -96990-5 0  9992,2 55307  69.9995 105.2636 0002816 267.2217  92.8620 14.98336273 60858,6950.173,96.107,573.996,570.081,0.0
55307.0,STARLINK-5288,PAYLOAD,2024-02-15 11:20:21,14.98324947,0.0002782,69.9995,103.7491,270.0332,90.0508,0.00013876,1.563e-05,0.0,0 STARLINK-5288,1 55307U 23010AQ  24046.47247071  .00001563  00000-0  13876-3 0  9997,2 55307  69.9995 103.7491 0002782 270.0332  90.0508 14.98324947 60627,6950.209,96.107,574.007,570.14,0.0
